{
    "links": {
        "self": "http://www.neowsapp.com/rest/v1/neo/3313972?api_key=iIulBulltgU6a56xZRHN4H3l9WmuAYTsLGpBGhQ2"
    },
    "id": "3313972",
    "neo_reference_id": "3313972",
    "name": "(2006 BX26)",
    "designation": "2006 BX26",
    "nasa_jpl_url": "http://ssd.jpl.nasa.gov/sbdb.cgi?sstr=3313972",
    "absolute_magnitude_h": 23.4,
    "estimated_diameter": {
        "kilometers": {
            "estimated_diameter_min": 0.0555334912,
            "estimated_diameter_max": 0.1241766613
        },
        "meters": {
            "estimated_diameter_min": 55.5334911581,
            "estimated_diameter_max": 124.1766612574
        },
        "miles": {
            "estimated_diameter_min": 0.0345069009,
            "estimated_diameter_max": 0.0771597762
        },
        "feet": {
            "estimated_diameter_min": 182.1964991311,
            "estimated_diameter_max": 407.4037573197
        }
    },
    "is_potentially_hazardous_asteroid": false,
    "close_approach_data": [
        {
            "close_approach_date": "2005-12-24",
            "close_approach_date_full": "2005-Dec-24 22:13",
            "epoch_date_close_approach": 1135462380000,
            "relative_velocity": {
                "kilometers_per_second": "4.8708493623",
                "kilometers_per_hour": "17535.0577041091",
                "miles_per_hour": "10895.6029384227"
            },
            "miss_distance": {
                "astronomical": "0.1888769138",
                "lunar": "73.4731194682",
                "kilometers": "28255583.996653606",
                "miles": "17557205.7570715228"
            },
            "orbiting_body": "Earth"
        }
    ],
    "orbital_data": {
        "orbit_id": "9",
        "orbit_determination_date": "2017-04-06 09:09:17",
        "first_observation_date": "2006-01-25",
        "last_observation_date": "2006-02-06",
        "data_arc_in_days": 12,
        "observations_used": 22,
        "orbit_uncertainty": "9",
        "minimum_orbit_intersection": ".175339",
        "jupiter_tisserand_invariant": "3.468",
        "epoch_osculation": "2453763.5",
        "eccentricity": ".4860834469451475",
        "semi_major_axis": "2.231502057378307",
        "inclination": "6.775129174255303",
        "ascending_node_longitude": "121.9935719049962",
        "orbital_period": "1217.571192557771",
        "perihelion_distance": "1.146805845462671",
        "perihelion_argument": "326.165720964594",
        "aphelion_distance": "3.316198269293942",
        "perihelion_time": "2453720.675189879008",
        "mean_anomaly": "12.66203712587066",
        "mean_motion": ".2956705958554606",
        "equinox": "J2000",
        "orbit_class": {
            "orbit_class_type": "AMO",
            "orbit_class_description": "Near-Earth asteroid orbits similar to that of 1221 Amor",
            "orbit_class_range": "1.017 AU < q (perihelion) < 1.3 AU"
        }
    },
    "is_sentry_object": false
}